METEOSAT-9 (MSG-2)      
1 28912U 05049B   24004.78531619  .00000147  00000+0  00000+0 0  9990
2 28912   7.3082  62.2207 0000373 219.7671 150.3682  1.00267532 66080
EWS-G1 (GOES 13)        
1 29155U 06018A   24005.54692899 -.00000121  00000+0  00000+0 0  9993
2 29155   2.1972  87.2259 0087640 248.0421 146.0146  0.99158788 34413
DMSP 5D-3 F17 (USA 191) 
1 29522U 06050A   24005.77798617  .00000188  00000+0  12081-3 0  9995
2 29522  98.7490  19.7010 0010935  86.4665 273.7759 14.14366558886094
FENGYUN 3A              
1 32958U 08026A   24005.80271362  .00000167  00000+0  10040-3 0  9994
2 32958  98.5843 317.8430 0008645 177.0815 183.0413 14.18989067808788
FENGYUN 2E              
1 33463U 08066A   24004.84782382 -.00000183  00000+0  00000+0 0  9992
2 33463   7.1754  61.5285 0001198 289.9642 144.1418  1.00278670 55139
NOAA 19                 
1 33591U 09005A   24005.86553518  .00000215  00000+0  14006-3 0  9998
2 33591  99.0733  59.7627 0014296  36.1078 324.1056 14.12899821768565
GOES 14                 
1 35491U 09033A   24005.50267899 -.00000038  00000+0  00000+0 0  9994
2 35491   0.1066 243.5968 0000181  31.4947 261.8773  1.00272449 53159
DMSP 5D-3 F18 (USA 210) 
1 35951U 09057A   24005.81139433  .00000325  00000+0  19395-3 0  9996
2 35951  98.7943 343.5534 0010120 273.1259  86.8756 14.13956010733277
EWS-G2 (GOES 15)        
1 36411U 10008A   24004.79632691  .00000063  00000+0  00000+0 0  9994
2 36411   0.1134 267.2680 0005889 356.0256 188.6834  1.00275845 50672
COMS 1                  
1 36744U 10032A   24004.80167647 -.00000320  00000+0  00000+0 0  9993
2 36744   2.5157  86.8995 0000848 217.3508 216.4490  1.00270701 42120
FENGYUN 3B              
1 37214U 10059A   24005.88753766  .00000093  00000+0  72261-4 0  9996
2 37214  99.0718  31.5716 0022020 191.6020 291.3885 14.14426117681160
SUOMI NPP               
1 37849U 11061A   24005.87114920  .00000118  00000+0  76535-4 0  9992
2 37849  98.7259 306.3147 0001427  70.5498 289.5832 14.19538377631694
FENGYUN 2F              
1 38049U 12002A   24005.57680716 -.00000334  00000+0  00000+0 0  9999
2 38049   5.1862  74.7438 0001819  34.6562 314.9356  1.00279181 43924
METEOSAT-10 (MSG-3)     
1 38552U 12035B   24004.77617881  .00000018  00000+0  00000+0 0  9996
2 38552   2.6004  59.3501 0000910 230.8364  93.0967  1.00272243 41882
METOP-B                 
1 38771U 12049A   24005.80217307  .00000130  00000+0  79126-4 0  9993
2 38771  98.6532  66.5061 0001599 114.3152 245.8192 14.21448419586330
FENGYUN 3C              
1 39260U 13052A   24005.88800822  .00000125  00000+0  83686-4 0  9990
2 39260  98.4266  14.1836 0012218  79.4966 280.7586 14.16127984532217
METEOR-M 2              
1 40069U 14037A   24005.80406334  .00000150  00000+0  88475-4 0  9994
2 40069  98.4294   7.4230 0006841 109.6125 250.5792 14.20866719492421
HIMAWARI-8              
1 40267U 14060A   24005.51778081 -.00000248  00000+0  00000+0 0  9991
2 40267   0.0370 173.1813 0000962 118.6541 139.8292  1.00270623 33795
FENGYUN 2G              
1 40367U 14090A   24005.28404719 -.00000279  00000+0  00000+0 0  9997
2 40367   3.3693  83.4226 0000915  16.7405 206.2325  1.00275815 33037
METEOSAT-11 (MSG-4)     
1 40732U 15034A   24004.84975793  .00000089  00000+0  00000+0 0  9996
2 40732   0.9990  62.9633 0002697 195.9096 160.6582  1.00262387 31042
ELEKTRO-L 2             
1 41105U 15074A   24004.99539141 -.00000092  00000+0  00000+0 0  9999
2 41105   4.4215  81.4427 0003336 192.3696 174.1596  1.00272352 29541
HIMAWARI-9              
1 41836U 16064A   24005.51787339 -.00000248  00000+0  00000+0 0  9996
2 41836   0.0264 271.1438 0000852  40.4572 120.1720  1.00269018 26232
GOES 16                 
1 41866U 16071A   24004.69786368 -.00000222  00000+0  00000+0 0  9998
2 41866   0.0711 247.6622 0001165  76.2937 315.8642  1.00271604 26134
FENGYUN 4A              
1 41882U 16077A   24005.57290477 -.00000301  00000+0  00000+0 0  9999
2 41882   0.0545  41.4340 0005824 355.4475  18.5001  1.00264724 26028
CYGFM05                 
1 41884U 16078A   24005.75798507  .00005886  00000+0  24205-3 0  9998
2 41884  34.9535 252.8073 0011545 154.7430 205.3850 15.23432936391210
CYGFM04                 
1 41885U 16078B   24005.05223083  .00006290  00000+0  25262-3 0  9998
2 41885  34.9472 242.7775 0010548 172.0094 188.0789 15.24218793391086
CYGFM02                 
1 41886U 16078C   24005.81962665  .00006592  00000+0  26430-3 0  9992
2 41886  34.9549 240.4087 0010688 169.7992 190.2941 15.24264865391354
CYGFM01                 
1 41887U 16078D   24005.77597653  .00005786  00000+0  23978-3 0  9997
2 41887  34.9499 256.1365 0011850 153.2348 206.8979 15.23171129391171
CYGFM08                 
1 41888U 16078E   24005.09835394  .00006157  00000+0  25014-3 0  9996
2 41888  34.9467 249.9518 0011115 164.7756 195.3294 15.23831584391115
CYGFM07                 
1 41890U 16078G   24005.05255734  .00006763  00000+0  27078-3 0  9994
2 41890  34.9495 242.3010 0010162 169.7295 190.3628 15.24310712391096
CYGFM03                 
1 41891U 16078H   24005.80052537  .00006146  00000+0  24668-3 0  9991
2 41891  34.9514 238.6230 0009285 174.2252 185.8571 15.24259302391340
FENGYUN 3D              
1 43010U 17072A   24005.82526578  .00000127  00000+0  82238-4 0  9995
2 43010  98.8896 319.7299 0002541  83.8215 276.3250 14.19262711318244
NOAA 20                 
1 43013U 17073A   24005.76521912  .00000093  00000+0  64745-4 0  9994
2 43013  98.7338 306.1554 0000607  70.8981 289.2260 14.19558330317718
GOES 17                 
1 43226U 18022A   24005.62624863 -.00000063  00000+0  00000+0 0  9996
2 43226   0.0413 186.1346 0001660  81.1468 318.2100  1.00272041 21473
FENGYUN 2H              
1 43491U 18050A   24004.74354819 -.00000105  00000+0  00000+0 0  9991
2 43491   0.7162  88.3065 0000691   4.7790 357.8049  1.00273407 20475
METOP-C                 
1 43689U 18087A   24005.76966737  .00000129  00000+0  78861-4 0  9991
2 43689  98.7052  67.2498 0002717 167.4098 192.7147 14.21489630267904
GEO-KOMPSAT-2A          
1 43823U 18100A   24001.76517744 -.00000327  00000+0  00000+0 0  9999
2 43823   0.0465 143.0620 0000399 249.7528 111.8038  1.00270456 18636
METEOR-M2 2             
1 44387U 19038A   24005.77052755  .00000056  00000+0  44051-4 0  9994
2 44387  98.8052 334.5541 0002337  78.8645 281.2796 14.23839362234137
ARKTIKA-M 1             
1 47719U 21016A   24002.75971377  .00000209  00000+0  00000+0 0  9991
2 47719  63.1447 170.5479 6897979 269.1097  18.1416  2.00602640 20808
FENGYUN 3E              
1 49008U 21062A   24005.84506100  .00000033  00000+0  36202-4 0  9999
2 49008  98.7288   9.3504 0002361 121.0662 239.0746 14.19720309129814
GOES 18                 
1 51850U 22021A   24003.22173814  .00000119  00000+0  00000+0 0  9992
2 51850   0.0308 196.7644 0000425  52.4691 155.9337  1.00272205  6791
NOAA 21 (JPSS-2)        
1 54234U 22150A   24005.85242774  .00000121  00000+0  77986-4 0  9992
2 54234  98.7374 305.7940 0000813 104.5595 255.5672 14.19555141 59807
METEOSAT-12 (MTG-I1)    
1 54743U 22170C   24004.84714726 -.00000005  00000+0  00000+0 0  9998
2 54743   0.3991 349.6943 0001630 267.3025 148.3518  1.00271564  4011
TIANMU-1 03             
1 55973U 23039A   24005.75366299  .00007018  00000+0  30563-3 0  9999
2 55973  97.4474 157.2705 0012354 326.8559  33.1902 15.22460584 43963
TIANMU-1 04             
1 55974U 23039B   24005.80133747  .00006412  00000+0  27966-3 0  9996
2 55974  97.4395 157.0534 0009298 328.2139  31.8535 15.22474951 43967
TIANMU-1 05             
1 55975U 23039C   24005.72083373  .00006517  00000+0  28460-3 0  9993
2 55975  97.4443 157.1917 0005246 324.4738  35.6148 15.22450772 43945
TIANMU-1 06             
1 55976U 23039D   24005.83647111  .00007153  00000+0  31206-3 0  9991
2 55976  97.4457 157.3925 0004765 327.2723  32.8217 15.22449960 43967
METEOR-M2 3             
1 57166U 23091A   24005.66656411  .00000008  00000+0  22857-4 0  9991
2 57166  98.7389  61.6130 0003133 234.4742 125.6145 14.23863815 27356
TIANMU-1 07             
1 57399U 23101A   24005.79693750  .00004049  00000+0  22077-3 0  9994
2 57399  97.3886  67.6037 0005817  50.1128 310.0615 15.14912909 25681
TIANMU-1 08             
1 57400U 23101B   24005.89732201  .00004235  00000+0  23073-3 0  9997
2 57400  97.3877  67.5998 0008364  48.1983 311.9962 15.14905078 25689
TIANMU-1 09             
1 57401U 23101C   24005.81270125  .00003712  00000+0  20265-3 0  9991
2 57401  97.3831  67.4594 0008544  43.6095 316.5811 15.14904952 25678
TIANMU-1 10             
1 57402U 23101D   24005.77922539  .00004531  00000+0  24599-3 0  9994
2 57402  97.3910  67.5300 0011117  43.2482 316.9621 15.14973379 25660
FENGYUN 3F              
1 57490U 23111A   24005.80496291  .00000078  00000+0  57657-4 0  9991
2 57490  98.7920  76.3017 0001181 140.3360 219.7903 14.19750929 22084
TIANMU-1 11             
1 58645U 23205A   24005.78427275  .00003369  00000+0  19064-3 0  9996
2 58645  97.4210  35.0979 0010152 233.0400 126.9903 15.13685856  1781
TIANMU-1 12             
1 58646U 23205B   24005.78602387  .00003395  00000+0  19274-3 0  9998
2 58646  97.4195  35.0932 0009413 230.1751 129.8652 15.13560219  1775
TIANMU-1 13             
1 58647U 23205C   24005.78810904  .00003321  00000+0  18996-3 0  9994
2 58647  97.4226  35.0954 0009851 219.2914 140.7603 15.13300353  1779
TIANMU-1 14             
1 58648U 23205D   24005.78636074  .00003360  00000+0  19090-3 0  9998
2 58648  97.4150  35.0855 0009868 225.0153 135.0280 15.13534680  1774
TIANMU-1 19             
1 58660U 23208A   24005.84744326  .00005160  00000+0  28936-3 0  9991
2 58660  97.4001 122.7308 0010607 217.1004 142.9496 15.13759591  1451
